NORAD_CAT_ID,OBJECT_NAME,OBJECT_TYPE,EPOCH,MEAN_MOTION,ECCENTRICITY,INCLINATION,RA_OF_ASC_NODE,ARG_OF_PERICENTER,MEAN_ANOMALY,BSTAR,MEAN_MOTION_DOT,MEAN_MOTION_DDOT,TLE_LINE0,TLE_LINE1,TLE_LINE2,SEMIMAJOR_AXIS,PERIOD,APOGEE,PERIGEE,DECAYED
52380.0,STARLINK-3793,PAYLOAD,2024-08-05 11:07:33,15.08835664,0.0001468,53.2144,268.3786,86.7174,273.3986,7.9171e-05,9.72e-06,0.0,0 STARLINK-3793,1 52380U 22045BB  24218.46358317  .00000972  00000-0  79171-4 0  9992,2 52380  53.2144 268.3786 0001468  86.7174 273.3986 15.08835664128310,6917.894,95.438,540.774,538.743,0.0
52380.0,STARLINK-3793,PAYLOAD,2024-08-06 12:33:44,15.08835459,0.0001492,53.2149,263.6177,96.0539,264.0623,8.9173e-05,1.131e-05,0.0,0 STARLINK-3793,1 52380U 22045BB  24219.52342929  .00001131  00000-0  89173-4 0  9993,2 52380  53.2149 263.6177 0001492  96.0539 264.0623 15.08835459128477,6917.894,95.438,540.791,538.727,0.0
52380.0,STARLINK-3793,PAYLOAD,2024-08-07 12:24:30,15.08851524,0.0001546,53.2156,259.1556,101.6258,258.4908,0.00035067,5.299e-05,0.0,0 STARLINK-3793,1 52380U 22045BB  24220.51702375  .00005299  00000-0  35067-3 0  9990,2 52380  53.2156 259.1556 0001546 101.6258 258.4908 15.08851524128628,6917.845,95.437,540.78,538.641,0.0
52380.0,STARLINK-3793,PAYLOAD,2024-08-08 09:04:31,15.08850325,0.0001621,53.2159,255.2885,106.7948,253.3222,0.00023757,3.496e-05,0.0,0 STARLINK-3793,1 52380U 22045BB  24221.37814246  .00003496  00000-0  23757-3 0  9996,2 52380  53.2159 255.2885 0001621 106.7948 253.3222 15.08850325128754,6917.849,95.437,540.835,538.592,0.0
52380.0,STARLINK-3793,PAYLOAD,2024-08-09 05:44:32,15.0884492,0.0001667,53.2158,251.4212,105.7678,254.3498,2.3901e-05,9.2e-07,0.0,0 STARLINK-3793,1 52380U 22045BB  24222.23926069  .00000092  00000-0  23901-4 0  9990,2 52380  53.2158 251.4212 0001667 105.7678 254.3498 15.08844920128888,6917.865,95.437,540.884,538.577,0.0
52380.0,STARLINK-3793,PAYLOAD,2024-08-09 12:06:04,15.08848116,0.0001456,53.2157,250.2359,88.7661,271.3498,4.389e-05,4.11e-06,0.0,0 STARLINK-3793,1 52380U 22045BB  24222.50421954  .00000411  00000-0  43890-4 0  9997,2 52380  53.2157 250.2359 0001456  88.7661 271.3498 15.08848116128929,6917.856,95.437,540.728,538.713,0.0
52380.0,STARLINK-3793,PAYLOAD,2024-08-09 18:27:37,15.08840298,0.0001459,53.215,249.0439,75.729,284.3864,-4.9424e-05,-1.074e-05,0.0,0 STARLINK-3793,1 52380U 22045BB  24222.76918311 -.00001074  00000-0 -49424-4 0  9990,2 52380  53.2150 249.0439 0001459  75.7290 284.3864 15.08840298128962,6917.879,95.438,540.754,538.735,0.0
52380.0,STARLINK-3793,PAYLOAD,2024-08-10 02:24:33,15.08834335,0.0001418,53.2168,247.5582,85.4393,274.6761,-4.4139e-05,-9.9e-06,0.0,0 STARLINK-3793,1 52380U 22045BB  24223.10039236 -.00000990  00000-0 -44139-4 0  9993,2 52380  53.2168 247.5582 0001418  85.4393 274.6761 15.08834335129010,6917.898,95.438,540.744,538.782,0.0
52380.0,STARLINK-3793,PAYLOAD,2024-08-10 08:46:06,15.08836925,0.0001489,53.2168,246.3713,90.0845,270.0318,8.0944e-06,-1.59e-06,0.0,0 STARLINK-3793,1 52380U 22045BB  24223.36534974 -.00000159  00000-0  80944-5 0  9991,2 52380  53.2168 246.3713 0001489  90.0845 270.0318 15.08836925129054,6917.89,95.438,540.785,538.725,0.0
52380.0,STARLINK-3793,PAYLOAD,2024-08-11 02:15:20,15.08842484,0.0001452,53.2169,243.0996,89.1628,270.953,6.4026e-05,7.31e-06,0.0,0 STARLINK-3793,1 52380U 22045BB  24224.09398705  .00000731  00000-0  64026-4 0  9999,2 52380  53.2169 243.0996 0001452  89.1628 270.9530 15.08842484129164,6917.873,95.437,540.742,538.733,0.0
52380.0,STARLINK-3793,PAYLOAD,2024-08-11 18:09:11,15.08844868,0.0001424,53.2155,240.1277,86.0191,274.0964,0.00016278,2.304e-05,0.0,0 STARLINK-3793,1 52380U 22045BB  24224.75638549  .00002304  00000-0  16278-3 0  9998,2 52380  53.2155 240.1277 0001424  86.0191 274.0964 15.08844868129264,6917.866,95.437,540.716,538.745,0.0
52380.0,STARLINK-3793,PAYLOAD,2024-08-12 05:16:55,15.08804385,0.0001215,53.2165,238.0453,62.0971,298.0144,-0.00031894,-5.355e-05,0.0,0 STARLINK-3793,1 52380U 22045BB  24225.22008997 -.00005355  00000-0 -31894-3 0  9991,2 52380  53.2165 238.0453 0001215  62.0971 298.0144 15.08804385129339,6917.989,95.44,540.695,539.014,0.0
52380.0,STARLINK-3793,PAYLOAD,2024-08-12 08:27:41,15.08807656,0.0001496,53.2156,237.4517,82.7137,277.4025,-0.00041434,-6.87e-05,0.0,0 STARLINK-3793,1 52380U 22045BB  24225.35256654 -.00006870  00000-0 -41434-3 0  9994,2 52380  53.2156 237.4517 0001496  82.7137 277.4025 15.08807656129352,6917.979,95.44,540.879,538.809,0.0
52380.0,STARLINK-3793,PAYLOAD,2024-08-12 18:00:00,15.08830794,0.0001571,53.2163,235.6698,74.2238,285.8927,9.4566e-05,1.217e-05,0.0,0 STARLINK-3793,1 52380U 22045BB  24225.75000323  .00001217  00000-0  94566-4 0  9991,2 52380  53.2163 235.6698 0001571  74.2238 285.8927 15.08830794129412,6917.909,95.438,540.86,538.687,0.0
52380.0,STARLINK-3793,PAYLOAD,2024-08-13 08:18:28,15.08843383,0.0001557,53.2145,232.9887,72.9983,287.1179,0.00080891,0.0001261,0.0,0 STARLINK-3793,1 52380U 22045BB  24226.34616508  .00012610  00000-0  80891-3 0  9999,2 52380  53.2145 232.9887 0001557  72.9983 287.1179 15.08843383129500,6917.87,95.437,540.812,538.658,0.0
52380.0,STARLINK-3793,PAYLOAD,2024-08-13 17:50:47,15.0885302,0.0001621,53.2147,231.205,70.61,289.5067,0.00063271,9.799e-05,0.0,0 STARLINK-3793,1 52380U 22045BB  24226.74360317  .00009799  00000-0  63271-3 0  9994,2 52380  53.2147 231.2050 0001621  70.6100 289.5067 15.08853020129561,6917.841,95.437,540.827,538.584,0.0
52380.0,STARLINK-3793,PAYLOAD,2024-08-14 06:33:52,15.08858253,0.0001657,53.2148,228.8262,72.3451,287.7721,0.00052994,8.16e-05,0.0,0 STARLINK-3793,1 52380U 22045BB  24227.27351903  .00008160  00000-0  52994-3 0  9995,2 52380  53.2148 228.8262 0001657  72.3451 287.7721 15.08858253129645,6917.825,95.436,540.836,538.543,0.0
52380.0,STARLINK-3793,PAYLOAD,2024-08-14 17:41:33,15.088516,0.0001693,53.2147,226.744,76.2915,283.8265,0.00019807,2.867e-05,0.0,0 STARLINK-3793,1 52380U 22045BB  24227.73719655  .00002867  00000-0  19807-3 0  9992,2 52380  53.2147 226.7440 0001693  76.2915 283.8265 15.08851600129714,6917.845,95.437,540.881,538.539,0.0
52380.0,STARLINK-3793,PAYLOAD,2024-08-15 06:24:38,15.08850046,0.0001725,53.2148,224.3653,75.1672,284.9512,9.491e-05,1.223e-05,0.0,0 STARLINK-3793,1 52380U 22045BB  24228.26711473  .00001223  00000-0  94910-4 0  9995,2 52380  53.2148 224.3653 0001725  75.1672 284.9512 15.08850046129797,6917.85,95.437,540.908,538.521,0.0
52380.0,STARLINK-3793,PAYLOAD,2024-08-16 04:40:02,15.08843183,0.0001693,53.2148,220.2013,85.4245,274.694,8.1393e-06,-1.59e-06,0.0,0 STARLINK-3793,1 52380U 22045BB  24229.19447507 -.00000159  00000-0  81393-5 0  9992,2 52380  53.2148 220.2013 0001693  85.4245 274.6940 15.08843183129937,6917.871,95.437,540.907,538.564,0.0
52380.0,STARLINK-3793,PAYLOAD,2024-08-16 06:15:25,15.08843517,0.0001657,53.2147,219.904,83.6208,276.4973,1.5332e-05,-4.4e-07,0.0,0 STARLINK-3793,1 52380U 22045BB  24229.26071457 -.00000044  00000-0  15332-4 0  9999,2 52380  53.2147 219.9040 0001657  83.6208 276.4973 15.08843517129948,6917.87,95.437,540.881,538.588,0.0
52380.0,STARLINK-3793,PAYLOAD,2024-08-17 06:06:12,15.0884723,0.0001502,53.2159,215.4449,85.3385,274.7778,2.9993e-05,1.89e-06,0.0,0 STARLINK-3793,1 52380U 22045BB  24230.25431297  .00000189  00000-0  29993-4 0  9999,2 52380  53.2159 215.4449 0001502  85.3385 274.7778 15.08847230130097,6917.858,95.437,540.762,538.684,0.0
52380.0,STARLINK-3793,PAYLOAD,2024-08-17 22:00:04,15.08838741,0.0001686,53.2167,212.4725,89.3759,270.7427,0.00010031,1.309e-05,0.0,0 STARLINK-3793,1 52380U 22045BB  24230.91671711  .00001309  00000-0  10031-3 0  9996,2 52380  53.2167 212.4725 0001686  89.3759 270.7427 15.08838741130197,6917.884,95.438,540.916,538.583,0.0
52380.0,STARLINK-3793,PAYLOAD,2024-08-18 04:21:37,15.08836652,0.0001626,53.2163,211.2816,87.8438,272.274,6.4176e-05,7.33e-06,0.0,0 STARLINK-3793,1 52380U 22045BB  24231.18167919  .00000733  00000-0  64176-4 0  9996,2 52380  53.2163 211.2816 0001626  87.8438 272.2740 15.08836652130231,6917.891,95.438,540.88,538.631,0.0
52380.0,STARLINK-3793,PAYLOAD,2024-08-18 21:50:51,15.08837462,0.0001712,53.2168,208.0099,98.5555,261.5631,5.2596e-05,5.49e-06,0.0,0 STARLINK-3793,1 52380U 22045BB  24231.91031973  .00000549  00000-0  52596-4 0  9995,2 52380  53.2168 208.0099 0001712  98.5555 261.5631 15.08837462130340,6917.888,95.438,540.937,538.569,0.0
52380.0,STARLINK-3793,PAYLOAD,2024-08-19 10:33:56,15.08836149,0.0001623,53.2162,205.6303,94.6305,265.4872,2.5249e-05,1.14e-06,0.0,0 STARLINK-3793,1 52380U 22045BB  24232.44024209  .00000114  00000-0  25249-4 0  9991,2 52380  53.2162 205.6303 0001623  94.6305 265.4872 15.08836149130426,6917.892,95.438,540.88,538.634,0.0
52380.0,STARLINK-3793,PAYLOAD,2024-08-20 05:38:35,15.08830999,0.0001618,53.2166,202.0622,86.4412,273.6765,1.1746e-05,-1.01e-06,0.0,0 STARLINK-3793,1 52380U 22045BB  24233.23513150 -.00000101  00000-0  11746-4 0  9991,2 52380  53.2166 202.0622 0001618  86.4412 273.6765 15.08830999130549,6917.908,95.438,540.892,538.654,0.0
52380.0,STARLINK-3793,PAYLOAD,2024-08-20 21:32:26,15.0884004,0.0001498,53.2168,199.0867,99.7315,260.3847,8.9661e-05,1.139e-05,0.0,0 STARLINK-3793,1 52380U 22045BB  24233.89752528  .00001139  00000-0  89661-4 0  9999,2 52380  53.2168 199.0867 0001498  99.7315 260.3847 15.08840040130645,6917.88,95.438,540.782,538.709,0.0
52380.0,STARLINK-3793,PAYLOAD,2024-08-21 03:53:58,15.08846617,0.0001611,53.2165,197.8997,82.9407,277.1768,0.00018872,2.717e-05,0.0,0 STARLINK-3793,1 52380U 22045BB  24234.16247989  .00002717  00000-0  18872-3 0  9998,2 52380  53.2165 197.8997 0001611  82.9407 277.1768 15.08846617130683,6917.86,95.437,540.84,538.611,0.0
52380.0,STARLINK-3793,PAYLOAD,2024-08-21 07:04:44,15.08850684,0.0001598,53.2163,197.3039,91.9798,268.1378,0.00021597,3.152e-05,0.0,0 STARLINK-3793,1 52380U 22045BB  24234.29495675  .00003152  00000-0  21597-3 0  9991,2 52380  53.2163 197.3039 0001598  91.9798 268.1378 15.08850684130709,6917.848,95.437,540.818,538.607,0.0
